STARLINK-1133           
1 45064U 20006W   26068.73076735 -.00000811  00000+0 -15247-4 0  9991
2 45064  53.1613 257.6114 0001370  88.8538 271.2620 15.30189808336888
TIANMU-1 07             
1 57399U 23101A   26065.57454230  .00008352  00000+0  29795-3 0  9991
2 57399  97.2728 118.5929 0004609 142.4105 217.7458 15.29118809145964
